[{"OBJECT_NAME":"ONEWEB-0170","OBJECT_ID":"2021-025AB","EPOCH":"2026-03-09T17:53:16.853280","MEAN_MOTION":13.13469925,"ECCENTRICITY":0.0001665,"INCLINATION":87.9038,"RA_OF_ASC_NODE":340.0039,"ARG_OF_PERICENTER":96.3198,"MEAN_ANOMALY":263.8121,"EPHEMERIS_TYPE":0,"CLASSIFICATION_TYPE":"U","NORAD_CAT_ID":48067,"ELEMENT_SET_NO":999,"REV_AT_EPOCH":24049,"BSTAR":0.00080336914,"MEAN_MOTION_DOT":3.06e-6,"MEAN_MOTION_DDOT":0},{"OBJECT_NAME":"COSMOS 1275 DEB","OBJECT_ID":"1981-053GJ","EPOCH":"2026-03-09T06:50:22.715232","MEAN_MOTION":13.48842389,"ECCENTRICITY":0.01877264,"INCLINATION":83.088,"RA_OF_ASC_NODE":156.1113,"ARG_OF_PERICENTER":18.6086,"MEAN_ANOMALY":36.1543,"EPHEMERIS_TYPE":0,"CLASSIFICATION_TYPE":"U","NORAD_CAT_ID":13488,"ELEMENT_SET_NO":999,"REV_AT_EPOCH":13886,"BSTAR":0.0010519265,"MEAN_MOTION_DOT":7.46e-6,"MEAN_MOTION_DDOT":0}]
